#dP2022  3  6  0  0  0.00000000      96 __u+U ITR00 EXT  IAC
## 2200      0.00000000   900.00000000 59644 0.0000000000000
+  117   C06C07C08C09C10C11C12C13C14C16C19C20C21C22C23C24C25
+        C26C27C28C29C30C32C33C34C35C36C37C38C39C40C41C42C43
+        C44C45C46E01E02E03E04E05E07E08E09E10E11E12E13E14E15
+        E18E19E21E25E26E27E30E31E33E34E36G01G02G03G04G05G06
+        G07G08G09G10G11G12G13G14G15G16G17G18G19G20G21G22G23
+        G24G25G26G27G28G29G30G31G32J01J02J03R01R02R03R04R05
+        R07R08R09R11R12R13R14R15R17R18R19R20R21R22R24  0  0
++         9  8  9  9  8  9  9  9  9  9  7 11 10  7  8  9  9
++         9 10 10 10 10  8  9  9  9 10  9 10 10  9 10  9  8
++         8  8  9  8  7  9  7  8  7  8  8  7  7  7  7  8  8
++         8  7  8  7  9  7  9  7  9  7  8  8  8  8  6  7  7
++         8  7  7  8  8  7  8  7  7  8  7  8  8  8  8  8  8
++         6  8  8  7  7  8  8  7  8 13  9  8  9 10  9  8  9
++         6  8  9  8  9  9  7 10 10  8  9  9  8  9  9  0  0
%c M  cc GPS ccc cccc cccc cccc cccc ccccc ccccc ccccc ccccc
%c cc cc ccc ccc cccc cccc cccc cccc ccccc ccccc ccccc ccccc
%f  0.0000000  0.000000000  0.00000000000  0.000000000000000
%f  0.0000000  0.000000000  0.00000000000  0.000000000000000
%i    0    0    0    0      0      0      0      0         0
%i    0    0    0    0      0      0      0      0         0
/* IAC                                ULTRA-RAPID PREDICTION
/* S/V CLOCKS ARE ALIGNED TO GNSS TIME                      
/* G:C1WC2W R:C1PC2P E:C1XC5X C:C2IC6I J:C1CC2S             
/* PCV:IGS14_2196 OL/AL:FES2004  NONE     YN ORB:CoN CLK:CoN
*  2022 03 06  3 45  0.00000000
PC06 -19076.668415  33744.375224  16325.126617   -441.848040
PC07  -4461.572851  37053.009779  19743.640790    170.807895
PC08  -8008.980721  19548.951746 -36476.747730    177.818526
PC09  -9932.347556  32196.077157  25383.301243   -579.112482
PC10   1765.354122  40010.130422  14163.510152    139.288549
PC11 -15628.678666  -5595.410330  22501.791199   -169.159219
PC12    266.458948 -18946.491890  20521.837962    682.161654
PC13   1365.971207  23026.018166 -35143.041149    -98.063294
PC14 -15880.507131 -16202.998195 -16186.344580    451.871125
PC16 -19831.988587  33705.233751  15568.284876     96.284297
PC19  16854.699150   6013.051055  21447.371539    889.308662
PC20  13058.428655  22595.516545   9940.818551   -838.507139
PC21  -1085.396741 -26611.061845   8318.663623   -926.594559
PC22  11074.152654 -14685.104493  20985.422016   -959.481362
PC23 -20037.087984   7715.195837  17825.251061   -948.250515
PC24 -17866.821537 -15808.322920 -14517.812505   -945.347145
PC25 -27361.603820  -4506.432882   3226.603346   -770.064587
PC26   -153.227996 -16619.667089 -22434.492191    770.178404
PC27  -8520.827109  22192.249673 -14619.058366    687.441407
PC28 -21003.940392  18263.453929   2004.426751     40.157925
PC29  21101.272155  -4125.174046 -17799.668348    523.772559
PC30   8901.112427  13488.773978 -22752.963344    494.622805
PC32   1300.839691  26609.962328  -8299.843394   -971.471467
PC33 -16896.842833  -5984.023251 -21373.370649   -962.703272
PC34  -9699.263766 -12802.271708  22812.678037   -454.741475
PC35  20682.787460 -18559.130421  -2788.209492    168.993361
PC36  27218.660109   5484.229617  -2743.389382   -929.955080
PC37  -1576.098386  16343.805041  22570.628680   -947.615045
PC38 -15739.517937  19359.057196 -33972.677291    215.946003
PC39 -23293.798883  34002.766558   8440.003368     34.858139
PC40  -7672.015283  34304.945464  23372.470360    249.861159
PC41 -11246.061682  14334.462426 -21081.579860   -949.513910
PC42 -12612.493797 -23191.009834  -8973.284921   -935.445081
PC43 -20927.973962   3336.216767  18134.343834   -937.823704
PC44   7918.156714 -22593.657995  14360.594993    585.573786
PC45  19787.639646  -7812.356949 -18051.902617    697.250432
PC46  19049.065172  15259.718332  13488.076476   -202.460804
PE01  20601.626474     72.923355 -21254.063422   -591.312511
PE02 -20541.089407     43.888603  21313.444232    284.395087
PE03 -17916.350424  11627.957568 -20496.916683   -534.404732
PE04  11061.212995 -26860.587462   5701.864484   -978.392656
PE05 -14371.054879 -10755.547331 -23532.595292   -203.062000
PE07   2523.785762  26555.276556  12844.706771   -645.475587
PE08 -10697.343674  27082.350117  -5341.280022   -490.338142
PE09  -2703.816284 -26409.288825 -13076.885267   5338.350359
PE10   6638.243771 -17401.058938  23004.718690   -498.879405
PE11  -5250.961137 -15274.769708  24800.311718   4301.336655
PE12  16945.404703 -16733.285452  17597.960327   4727.752972
PE13   4536.338672  15402.415366 -24859.334166    427.055453
PE14  -1758.169985 -20014.257758  12298.351650  -1768.147991
PE15 -17034.808959  16687.508716 -17519.277681    759.498189
PE18   6732.116613  24425.457180 -20372.298871  -1717.698092
PE19  17974.856012  -8991.169565  21740.058735   -840.070153
PE21  23656.453506  16133.746035  -7487.878789   -720.875495
PE25 -23611.651428 -16329.439285   7236.467856   -565.807523
PE26  23968.281719   4597.548349 -16745.583645   -879.300195
PE27  13261.961154  23889.570051  11361.706928   -246.702767
PE30  -5946.371982  16816.282439  23604.609541   -325.522290
PE31   4831.100929 -17530.277380 -23356.747795   -493.112853
PE33  28467.812606  -8137.238912   -101.831053   -458.837833
PE34 -28410.954499   8306.824464    -95.813691   -505.233151
PE36 -23276.025138  -5095.082752  17560.166918   -341.278362
PG01   7252.905791  13664.315744 -21920.559990    415.826373
PG02  15367.298034 -15003.552535  16373.859760   -651.879265
PG03  12115.080604  22794.631392  -6595.984016   -150.540142
PG04   2171.426422  21522.560829  15361.234278   -185.566826
PG05    839.249477 -18924.350794  18394.403339    -73.666229
PG06  25831.313028  -5600.570728   3084.329205    221.939085
PG07  22094.220388   6954.945444  13814.212895    314.436612
PG08  -4943.774327  25155.392067  -6225.513870    -58.715037
PG09  11015.152829  12303.500204  20726.777508   -351.225114
PG10 -19449.412304  -5835.704610 -17129.835499   -338.504958
PG11  17257.560261 -12530.088976  15822.030162    -69.907043
PG12  -8078.587689 -23641.238884  -9470.474216   -180.582093
PG13  13059.306903 -23024.969785    -73.057957    272.136762
PG14  19535.651817   6858.515880 -16682.787672    -90.956660
PG15   1292.391847 -25507.983816  -7065.114923    -78.975512
PG16  -6282.853083  15678.106616  20102.973971   -477.297046
PG17  16693.740889  -4086.014685 -19834.418229    583.503140
PG18 -21879.765700  -6699.893632  13567.201788    226.299391
PG19  18150.708878 -10942.625554 -16149.894334    127.278776
PG20   8932.129895 -12972.489006  21401.937426    516.425500
PG21  -3838.020917  15515.884393 -20423.780819    159.006149
PG22 -17559.050501  14421.669397 -13195.463430    223.166806
PG23 -20160.461209 -15125.256492  -8543.479163     -4.362032
PG24  -3179.687706 -15600.119851 -21551.179847    270.423700
PG25 -17520.852329 -20051.976024   1849.762613    294.398181
PG26 -15315.344018   5739.233537  20888.420159    188.495650
PG27 -12438.016086  22750.343309   4471.415538    144.048488
PG28  16019.249637  -1219.992604 -20589.102804    386.704944
PG29  -8016.243040 -14740.306373  20528.213072   -487.949118
PG30  26026.732776   1171.108076   5872.618538   -517.113660
PG31 -25407.684693   6685.594703   5216.341954   -167.642816
PG32 -17115.701115   8341.450603 -18302.176534    -79.351298
PJ01 -21952.531240  28288.506529 -17712.457131    214.223793
PJ02 -26480.102866  21015.129266  30169.604492     -1.770713
PJ03 -35128.369117  23239.351909   1985.346976     -0.833471
PR01 -11020.143518    809.786441 -22985.436866      7.186940
PR02  -5619.988321  20035.268841 -14663.140420    511.630133
PR03   2775.334409  25250.623447   2016.259275     52.606712
PR04   9227.900860  16314.510093  17327.503394    130.609935
PR05  10717.336552  -1608.061943  23106.111771     88.858294
PR07  -3020.992825 -25216.744423  -2598.220614     32.338634
PR08  -9346.006021 -16255.123456 -17248.266617    -63.884599
PR09   9010.923445  -8070.068753 -22452.953428     42.842671
PR11 -21421.143656 -12754.787760  -5365.974400     44.228914
PR12 -21770.187968  -3590.674400  12838.855020     17.359479
PR13  -9976.882640   7172.590870  22332.387928    -19.085971
PR14   8944.102209  14446.287755  19035.295276     75.082143
PR15  21569.824470  12813.980616   4612.469563     97.745816
PR17  -4346.510709  14233.957154 -20714.991822    507.178525
PR18  11363.243448   4514.201061 -22379.513435    109.386729
PR19  20944.855816  -6176.447842 -13185.608843   -180.519751
PR20  19150.563799 -15454.746718   6819.143636    -66.168842
PR21   3028.095026 -13552.705765  21394.130264   -283.048213
PR22 -11921.265393  -4014.432283  22159.622725   -168.762155
PR24 -18336.389164  16115.769205  -7390.031458     83.091778
EOF
